[{"CCSDS_OMM_VERS":"3.0","COMMENT":"GENERATED VIA SPACE-TRACK.ORG API","CREATION_DATE":"2026-01-18T18:14:43","ORIGINATOR":"18 SPCS","OBJECT_NAME":"VANGUARD 1","OBJECT_ID":"1958-002B","CENTER_NAME":"EARTH","REF_FRAME":"TEME","TIME_SYSTEM":"UTC","MEAN_ELEMENT_THEORY":"SGP4","EPOCH":"2026-01-18T10:50:15.643680","MEAN_MOTION":"10.85940622","ECCENTRICITY":"0.18394820","INCLINATION":"34.2491","RA_OF_ASC_NODE":"56.4106","ARG_OF_PERICENTER":"183.3677","MEAN_ANOMALY":"175.2761","EPHEMERIS_TYPE":"0","CLASSIFICATION_TYPE":"U","NORAD_CAT_ID":"5","ELEMENT_SET_NO":"999","REV_AT_EPOCH":"42700","BSTAR":"-0.00002450674300","MEAN_MOTION_DOT":"-0.00000010","MEAN_MOTION_DDOT":"0.0000000000000","SEMIMAJOR_AXIS":"8613.860","PERIOD":"132.604","APOAPSIS":"3820.229","PERIAPSIS":"651.221","OBJECT_TYPE":"PAYLOAD","RCS_SIZE":"SMALL","COUNTRY_CODE":"US","LAUNCH_DATE":"1958-03-17","SITE":"AFETR","DECAY_DATE":null,"FILE":"4972861","GP_ID":"309361009","TLE_LINE0":"0 VANGUARD 1","TLE_LINE1":"1 00005U 58002B   26018.45156995 -.00000010  00000-0 -24507-4 0  9996","TLE_LINE2":"2 00005  34.2491  56.4106 1839482 183.3677 175.2761 10.85940622427001"},{"CCSDS_OMM_VERS":"3.0","COMMENT":"GENERATED VIA SPACE-TRACK.ORG API","CREATION_DATE":"2026-01-19T02:30:55","ORIGINATOR":"18 SPCS","OBJECT_NAME":"VANGUARD 2","OBJECT_ID":"1959-001A","CENTER_NAME":"EARTH","REF_FRAME":"TEME","TIME_SYSTEM":"UTC","MEAN_ELEMENT_THEORY":"SGP4","EPOCH":"2026-01-18T21:05:42.370368","MEAN_MOTION":"11.90182673","ECCENTRICITY":"0.14477364","INCLINATION":"32.8780","RA_OF_ASC_NODE":"290.1297","ARG_OF_PERICENTER":"287.2905","MEAN_ANOMALY":"57.4685","EPHEMERIS_TYPE":"0","CLASSIFICATION_TYPE":"U","NORAD_CAT_ID":"11","ELEMENT_SET_NO":"999","REV_AT_EPOCH":"51767","BSTAR":"0.00022894070000","MEAN_MOTION_DOT":"0.00000469","MEAN_MOTION_DDOT":"0.0000000000000","SEMIMAJOR_AXIS":"8103.254","PERIOD":"120.990","APOAPSIS":"2898.256","PERIAPSIS":"551.981","OBJECT_TYPE":"PAYLOAD","RCS_SIZE":"MEDIUM","COUNTRY_CODE":"US","LAUNCH_DATE":"1959-02-17","SITE":"AFETR","DECAY_DATE":null,"FILE":"4972920","GP_ID":"309393209","TLE_LINE0":"0 VANGUARD 2","TLE_LINE1":"1 00011U 59001A   26018.87896262  .00000469  00000-0  22894-3 0  9999","TLE_LINE2":"2 00011  32.8780 290.1297 1447736 287.2905  57.4685 11.90182673517676"},{"CCSDS_OMM_VERS":"3.0","COMMENT":"GENERATED VIA SPACE-TRACK.ORG API","CREATION_DATE":"2026-01-19T02:30:55","ORIGINATOR":"18 SPCS","OBJECT_NAME":"VANGUARD R\/B","OBJECT_ID":"1959-001B","CENTER_NAME":"EARTH","REF_FRAME":"TEME","TIME_SYSTEM":"UTC","MEAN_ELEMENT_THEORY":"SGP4","EPOCH":"2026-01-18T16:31:01.030368","MEAN_MOTION":"11.48483539","ECCENTRICITY":"0.16471310","INCLINATION":"32.9006","RA_OF_ASC_NODE":"32.1181","ARG_OF_PERICENTER":"33.4272","MEAN_ANOMALY":"336.0179","EPHEMERIS_TYPE":"0","CLASSIFICATION_TYPE":"U","NORAD_CAT_ID":"12","ELEMENT_SET_NO":"999","REV_AT_EPOCH":"51413","BSTAR":"0.00042406862000","MEAN_MOTION_DOT":"0.00000719","MEAN_MOTION_DDOT":"0.0000000000000","SEMIMAJOR_AXIS":"8298.227","PERIOD":"125.383","APOAPSIS":"3286.919","PERIAPSIS":"553.266","OBJECT_TYPE":"ROCKET BODY","RCS_SIZE":"MEDIUM","COUNTRY_CODE":"US","LAUNCH_DATE":"1959-02-17","SITE":"AFETR","DECAY_DATE":null,"FILE":"4972920","GP_ID":"309393710","TLE_LINE0":"0 VANGUARD R\/B","TLE_LINE1":"1 00012U 59001B   26018.68820637  .00000719  00000-0  42407-3 0  9992","TLE_LINE2":"2 00012  32.9006  32.1181 1647131  33.4272 336.0179 11.48483539514134"},{"CCSDS_OMM_VERS":"3.0","COMMENT":"GENERATED VIA SPACE-TRACK.ORG API","CREATION_DATE":"2026-01-19T02:30:55","ORIGINATOR":"18 SPCS","OBJECT_NAME":"VANGUARD R\/B","OBJECT_ID":"1958-002A","CENTER_NAME":"EARTH","REF_FRAME":"TEME","TIME_SYSTEM":"UTC","MEAN_ELEMENT_THEORY":"SGP4","EPOCH":"2026-01-18T15:41:29.570208","MEAN_MOTION":"10.49574176","ECCENTRICITY":"0.20225775","INCLINATION":"34.2737","RA_OF_ASC_NODE":"17.4320","ARG_OF_PERICENTER":"209.1217","MEAN_ANOMALY":"137.9941","EPHEMERIS_TYPE":"0","CLASSIFICATION_TYPE":"U","NORAD_CAT_ID":"16","ELEMENT_SET_NO":"999","REV_AT_EPOCH":"67320","BSTAR":"-0.00009978701700","MEAN_MOTION_DOT":"-0.00000056","MEAN_MOTION_DDOT":"0.0000000000000","SEMIMAJOR_AXIS":"8811.701","PERIOD":"137.198","APOAPSIS":"4215.801","PERIAPSIS":"651.331","OBJECT_TYPE":"ROCKET BODY","RCS_SIZE":"MEDIUM","COUNTRY_CODE":"US","LAUNCH_DATE":"1958-03-17","SITE":"AFETR","DECAY_DATE":null,"FILE":"4972920","GP_ID":"309393210","TLE_LINE0":"0 VANGUARD R\/B","TLE_LINE1":"1 00016U 58002A   26018.65381447 -.00000056  00000-0 -99787-4 0  9994","TLE_LINE2":"2 00016  34.2737  17.4320 2022578 209.1217 137.9941 10.49574176673206"},{"CCSDS_OMM_VERS":"3.0","COMMENT":"GENERATED VIA SPACE-TRACK.ORG API","CREATION_DATE":"2026-01-18T18:14:43","ORIGINATOR":"18 SPCS","OBJECT_NAME":"VANGUARD 3","OBJECT_ID":"1959-007A","CENTER_NAME":"EARTH","REF_FRAME":"TEME","TIME_SYSTEM":"UTC","MEAN_ELEMENT_THEORY":"SGP4","EPOCH":"2026-01-18T12:35:27.231936","MEAN_MOTION":"11.61740900","ECCENTRICITY":"0.16393441","INCLINATION":"33.3490","RA_OF_ASC_NODE":"85.7584","ARG_OF_PERICENTER":"331.2467","MEAN_ANOMALY":"20.6606","EPHEMERIS_TYPE":"0","CLASSIFICATION_TYPE":"U","NORAD_CAT_ID":"20","ELEMENT_SET_NO":"999","REV_AT_EPOCH":"46720","BSTAR":"0.00047112379000","MEAN_MOTION_DOT":"0.00001195","MEAN_MOTION_DDOT":"0.0000000000000","SEMIMAJOR_AXIS":"8234.976","PERIOD":"123.952","APOAPSIS":"3206.837","PERIAPSIS":"506.845","OBJECT_TYPE":"PAYLOAD","RCS_SIZE":"MEDIUM","COUNTRY_CODE":"US","LAUNCH_DATE":"1959-09-18","SITE":"AFETR","DECAY_DATE":null,"FILE":"4972861","GP_ID":"309361011","TLE_LINE0":"0 VANGUARD 3","TLE_LINE1":"1 00020U 59007A   26018.52462074  .00001195  00000-0  47112-3 0  9994","TLE_LINE2":"2 00020  33.3490  85.7584 1639344 331.2467  20.6606 11.61740900467207"},{"CCSDS_OMM_VERS":"3.0","COMMENT":"GENERATED VIA SPACE-TRACK.ORG API","CREATION_DATE":"2026-01-19T02:30:55","ORIGINATOR":"18 SPCS","OBJECT_NAME":"EXPLORER 7","OBJECT_ID":"1959-009A","CENTER_NAME":"EARTH","REF_FRAME":"TEME","TIME_SYSTEM":"UTC","MEAN_ELEMENT_THEORY":"SGP4","EPOCH":"2026-01-18T16:34:05.711232","MEAN_MOTION":"15.24754901","ECCENTRICITY":"0.00852161","INCLINATION":"50.2393","RA_OF_ASC_NODE":"117.4838","ARG_OF_PERICENTER":"243.1996","MEAN_ANOMALY":"116.0228","EPHEMERIS_TYPE":"0","CLASSIFICATION_TYPE":"U","NORAD_CAT_ID":"22","ELEMENT_SET_NO":"999","REV_AT_EPOCH":"77750","BSTAR":"0.00051011571000","MEAN_MOTION_DOT":"0.00013879","MEAN_MOTION_DDOT":"0.0000000000000","SEMIMAJOR_AXIS":"6869.659","PERIOD":"94.441","APOAPSIS":"550.064","PERIAPSIS":"432.983","OBJECT_TYPE":"PAYLOAD","RCS_SIZE":"MEDIUM","COUNTRY_CODE":"US","LAUNCH_DATE":"1959-10-13","SITE":"AFETR","DECAY_DATE":null,"FILE":"4972920","GP_ID":"309393211","TLE_LINE0":"0 EXPLORER 7","TLE_LINE1":"1 00022U 59009A   26018.69034388  .00013879  00000-0  51012-3 0  9995","TLE_LINE2":"2 00022  50.2393 117.4838 0085216 243.1996 116.0228 15.24754901777500"},{"CCSDS_OMM_VERS":"3.0","COMMENT":"GENERATED VIA SPACE-TRACK.ORG API","CREATION_DATE":"2026-01-19T02:30:55","ORIGINATOR":"18 SPCS","OBJECT_NAME":"TIROS 1","OBJECT_ID":"1960-002B","CENTER_NAME":"EARTH","REF_FRAME":"TEME","TIME_SYSTEM":"UTC","MEAN_ELEMENT_THEORY":"SGP4","EPOCH":"2026-01-18T23:56:10.639104","MEAN_MOTION":"14.78502419","ECCENTRICITY":"0.00225978","INCLINATION":"48.3795","RA_OF_ASC_NODE":"13.5427","ARG_OF_PERICENTER":"344.7408","MEAN_ANOMALY":"15.2822","EPHEMERIS_TYPE":"0","CLASSIFICATION_TYPE":"U","NORAD_CAT_ID":"29","ELEMENT_SET_NO":"999","REV_AT_EPOCH":"52005","BSTAR":"0.00011306386000","MEAN_MOTION_DOT":"0.00000622","MEAN_MOTION_DDOT":"0.0000000000000","SEMIMAJOR_AXIS":"7012.192","PERIOD":"97.396","APOAPSIS":"649.903","PERIAPSIS":"618.211","OBJECT_TYPE":"PAYLOAD","RCS_SIZE":"MEDIUM","COUNTRY_CODE":"US","LAUNCH_DATE":"1960-04-01","SITE":"AFETR","DECAY_DATE":null,"FILE":"4972920","GP_ID":"309393712","TLE_LINE0":"0 TIROS 1","TLE_LINE1":"1 00029U 60002B   26018.99734536  .00000622  00000-0  11306-3 0  9996","TLE_LINE2":"2 00029  48.3795  13.5427 0022598 344.7408  15.2822 14.78502419520050"},{"CCSDS_OMM_VERS":"3.0","COMMENT":"GENERATED VIA SPACE-TRACK.ORG API","CREATION_DATE":"2026-01-19T02:30:55","ORIGINATOR":"18 SPCS","OBJECT_NAME":"TRANSIT 2A","OBJECT_ID":"1960-007A","CENTER_NAME":"EARTH","REF_FRAME":"TEME","TIME_SYSTEM":"UTC","MEAN_ELEMENT_THEORY":"SGP4","EPOCH":"2026-01-18T18:08:44.168064","MEAN_MOTION":"14.35830104","ECCENTRICITY":"0.02563942","INCLINATION":"66.6936","RA_OF_ASC_NODE":"35.4385","ARG_OF_PERICENTER":"268.3379","MEAN_ANOMALY":"88.8343","EPHEMERIS_TYPE":"0","CLASSIFICATION_TYPE":"U","NORAD_CAT_ID":"45","ELEMENT_SET_NO":"999","REV_AT_EPOCH":"35859","BSTAR":"0.00012288755000","MEAN_MOTION_DOT":"0.00000408","MEAN_MOTION_DDOT":"0.0000000000000","SEMIMAJOR_AXIS":"7150.446","PERIOD":"100.290","APOAPSIS":"955.644","PERIAPSIS":"588.978","OBJECT_TYPE":"PAYLOAD","RCS_SIZE":"MEDIUM","COUNTRY_CODE":"US","LAUNCH_DATE":"1960-06-22","SITE":"AFETR","DECAY_DATE":null,"FILE":"4972920","GP_ID":"309393212","TLE_LINE0":"0 TRANSIT 2A","TLE_LINE1":"1 00045U 60007A   26018.75606676  .00000408  00000-0  12289-3 0  9999","TLE_LINE2":"2 00045  66.6936  35.4385 0256394 268.3379  88.8343 14.35830104358595"}]